[{"OBJECT_NAME":"STARLINK-3870","OBJECT_ID":"2022-049A","EPOCH":"2026-03-09T23:26:40.397280","MEAN_MOTION":15.08864564,"ECCENTRICITY":0.00011249,"INCLINATION":53.2168,"RA_OF_ASC_NODE":67.83,"ARG_OF_PERICENTER":101.1537,"MEAN_ANOMALY":258.9581,"EPHEMERIS_TYPE":0,"CLASSIFICATION_TYPE":"U","NORAD_CAT_ID":52451,"ELEMENT_SET_NO":999,"REV_AT_EPOCH":21215,"BSTAR":0.00022414535,"MEAN_MOTION_DOT":3.284e-5,"MEAN_MOTION_DDOT":0},{"OBJECT_NAME":"OBJECT B","OBJECT_ID":"2024-174B","EPOCH":"2026-03-09T23:26:11.570784","MEAN_MOTION":15.09493991,"ECCENTRICITY":0.00195829,"INCLINATION":97.4508,"RA_OF_ASC_NODE":75.153,"ARG_OF_PERICENTER":270.277,"MEAN_ANOMALY":89.6216,"EPHEMERIS_TYPE":0,"CLASSIFICATION_TYPE":"U","NORAD_CAT_ID":61239,"ELEMENT_SET_NO":999,"REV_AT_EPOCH":8042,"BSTAR":0.00031274192,"MEAN_MOTION_DOT":4.97e-5,"MEAN_MOTION_DDOT":0}]
